{
    "links": {
        "self": "http://www.neowsapp.com/rest/v1/neo/3555043?api_key=iIulBulltgU6a56xZRHN4H3l9WmuAYTsLGpBGhQ2"
    },
    "id": "3555043",
    "neo_reference_id": "3555043",
    "name": "(2011 AE3)",
    "designation": "2011 AE3",
    "nasa_jpl_url": "http://ssd.jpl.nasa.gov/sbdb.cgi?sstr=3555043",
    "absolute_magnitude_h": 28.0,
    "estimated_diameter": {
        "kilometers": {
            "estimated_diameter_min": 0.0066765941,
            "estimated_diameter_max": 0.0149293183
        },
        "meters": {
            "estimated_diameter_min": 6.676594135,
            "estimated_diameter_max": 14.9293183439
        },
        "miles": {
            "estimated_diameter_min": 0.004148642,
            "estimated_diameter_max": 0.0092766455
        },
        "feet": {
            "estimated_diameter_min": 21.9048371017,
            "estimated_diameter_max": 48.9807047955
        }
    },
    "is_potentially_hazardous_asteroid": false,
    "close_approach_data": [
        {
            "close_approach_date": "2011-01-03",
            "close_approach_date_full": "2011-Jan-03 06:22",
            "epoch_date_close_approach": 1294035720000,
            "relative_velocity": {
                "kilometers_per_second": "6.8295985139",
                "kilometers_per_hour": "24586.5546499976",
                "miles_per_hour": "15277.1289157166"
            },
            "miss_distance": {
                "astronomical": "0.0066148203",
                "lunar": "2.5731650967",
                "kilometers": "989563.027312761",
                "miles": "614885.9525316618"
            },
            "orbiting_body": "Moon"
        },
        {
            "close_approach_date": "2011-01-03",
            "close_approach_date_full": "2011-Jan-03 13:17",
            "epoch_date_close_approach": 1294060620000,
            "relative_velocity": {
                "kilometers_per_second": "6.6456590062",
                "kilometers_per_hour": "23924.3724224204",
                "miles_per_hour": "14865.6746310312"
            },
            "miss_distance": {
                "astronomical": "0.005701514",
                "lunar": "2.217888946",
                "kilometers": "852934.35017518",
                "miles": "529988.829290284"
            },
            "orbiting_body": "Earth"
        }
    ],
    "orbital_data": {
        "orbit_id": "10",
        "orbit_determination_date": "2017-04-08 18:39:29",
        "first_observation_date": "2011-01-04",
        "last_observation_date": "2011-01-04",
        "data_arc_in_days": null,
        "observations_used": 16,
        "orbit_uncertainty": "9",
        "minimum_orbit_intersection": ".00122284",
        "jupiter_tisserand_invariant": "6.148",
        "epoch_osculation": "2455565.5",
        "eccentricity": ".1559296051418253",
        "semi_major_axis": ".9819237890948838",
        "inclination": "8.596948837240406",
        "ascending_node_longitude": "282.8981250414764",
        "orbital_period": "355.3980982922341",
        "perihelion_distance": ".8288128003819536",
        "perihelion_argument": "79.85923759735707",
        "aphelion_distance": "1.135034777807814",
        "perihelion_time": "2455484.425333327502",
        "mean_anomaly": "82.12446870804499",
        "mean_motion": "1.012948582814255",
        "equinox": "J2000",
        "orbit_class": {
            "orbit_class_type": "ATE",
            "orbit_class_description": "Near-Earth asteroid orbits similar to that of 2062 Aten",
            "orbit_class_range": "a (semi-major axis) < 1.0 AU; q (perihelion) > 0.983 AU"
        }
    },
    "is_sentry_object": false
}